{"type": "Feature", "properties": {"name": "Vaucluse", "note": "simplified (RDP eps=0.0025) boundary for point-in-polygon filtering"}, "geometry": {"type": "MultiPolygon", "coordinates": [[[[5.3831, 44.15537], [5.38656, 44.18354], [5.38107, 44.19593], [5.38461, 44.20129], [5.3549, 44.21458], [5.3368, 44.20352], [5.31833, 44.20984], [5.30333, 44.20992], [5.30312, 44.20551], [5.29229, 44.21444], [5.25331, 44.23129], [5.24046, 44.23085], [5.23826, 44.21339], [5.23032, 44.21177], [5.22625, 44.21508], [5.20865, 44.21393], [5.18908, 44.22011], [5.1811, 44.21903], [5.15526, 44.23027], [5.15474, 44.23469], [5.14939, 44.23565], [5.16182, 44.24575], [5.16068, 44.26679], [5.14752, 44.26962], [5.14685, 44.27534], [5.14982, 44.28192], [5.16834, 44.29013], [5.17387, 44.30833], [5.1677, 44.31485], [5.15068, 44.30958], [5.15494, 44.30202], [5.11917, 44.28695], [5.10783, 44.28085], [5.10816, 44.2773], [5.09436, 44.2828], [5.07648, 44.28393], [5.06043, 44.308], [5.00347, 44.28638], [4.97615, 44.28265], [4.9333, 44.26222], [4.90163, 44.26022], [4.89969, 44.2568], [4.89552, 44.25752], [4.90167, 44.26408], [4.87408, 44.25974], [4.86755, 44.25577], [4.86596, 44.24947], [4.84356, 44.2418], [4.84051, 44.23519], [4.83749, 44.23653], [4.82669, 44.22833], [4.81419, 44.23207], [4.81266, 44.25773], [4.80398, 44.26921], [4.80656, 44.27319], [4.80312, 44.27992], [4.80461, 44.30388], [4.78959, 44.30761], [4.78892, 44.31355], [4.77944, 44.31833], [4.77143, 44.31721], [4.76233, 44.32536], [4.71776, 44.32686], [4.71236, 44.32382], [4.71308, 44.32056], [4.67897, 44.3205], [4.65076, 44.3291], [4.6498, 44.31247], [4.65358, 44.29953], [4.64951, 44.26106], [4.67765, 44.23475], [4.67405, 44.2145], [4.70575, 44.21464], [4.70982, 44.20859], [4.70447, 44.20004], [4.7057, 44.19307], [4.72234, 44.18741], [4.71971, 44.17721], [4.71622, 44.17682], [4.71983, 44.14572], [4.71169, 44.13485], [4.71104, 44.11943], [4.70615, 44.10977], [4.70812, 44.10274], [4.71919, 44.09243], [4.72085, 44.08126], [4.72813, 44.07875], [4.75167, 44.08801], [4.76006, 44.08732], [4.76095, 44.07631], [4.78655, 44.06589], [4.788, 44.0527], [4.81428, 44.03443], [4.81943, 44.01753], [4.83777, 44.01477], [4.84378, 44.00828], [4.84246, 43.98683], [4.81198, 43.98708], [4.81014, 43.97753], [4.81542, 43.96541], [4.81264, 43.96189], [4.79379, 43.95452], [4.77836, 43.93756], [4.75135, 43.93251], [4.73963, 43.92459], [4.85316, 43.91138], [4.88524, 43.90035], [4.90266, 43.88835], [4.9218, 43.88782], [4.96661, 43.87123], [4.99722, 43.84493], [5.03007, 43.8272], [5.04119, 43.81118], [5.04302, 43.79549], [5.04894, 43.78929], [5.18754, 43.73512], [5.22948, 43.74766], [5.24753, 43.74871], [5.31674, 43.73614], [5.33902, 43.7202], [5.43929, 43.6811], [5.53233, 43.65921], [5.57458, 43.66219], [5.60704, 43.65867], [5.61371, 43.66396], [5.64262, 43.67247], [5.67256, 43.69342], [5.70766, 43.69001], [5.71664, 43.69288], [5.73154, 43.71394], [5.7466, 43.71939], [5.75835, 43.73058], [5.74455, 43.74336], [5.7164, 43.75567], [5.7128, 43.78118], [5.70414, 43.7797], [5.68586, 43.78702], [5.67421, 43.80759], [5.66543, 43.81072], [5.65458, 43.82504], [5.62785, 43.83118], [5.60136, 43.82619], [5.57579, 43.82996], [5.56798, 43.82764], [5.56408, 43.81955], [5.54443, 43.81838], [5.54871, 43.85126], [5.57287, 43.86237], [5.60829, 43.91491], [5.58158, 43.91485], [5.58198, 43.92471], [5.5676, 43.93718], [5.56823, 43.94288], [5.54488, 43.9389], [5.5264, 43.9475], [5.51268, 43.94532], [5.50983, 43.95047], [5.50758, 43.95734], [5.51801, 43.99264], [5.52418, 43.99622], [5.52441, 44.00223], [5.54358, 44.02595], [5.54484, 44.07008], [5.50263, 44.06353], [5.49777, 44.07778], [5.49933, 44.11586], [5.45102, 44.1211], [5.44756, 44.13676], [5.43656, 44.13997], [5.43594, 44.15238], [5.42723, 44.14904], [5.41707, 44.15531], [5.3965, 44.15212], [5.3831, 44.15537]]], [[[4.99638, 44.32004], [5.01392, 44.32585], [5.00875, 44.33382], [5.02342, 44.34618], [5.02289, 44.35997], [5.05473, 44.36486], [5.07197, 44.38076], [5.06045, 44.38432], [5.04665, 44.38147], [5.03538, 44.39087], [5.01576, 44.39279], [5.01344, 44.40536], [5.01987, 44.40993], [5.01838, 44.41598], [5.01159, 44.41554], [5.01043, 44.41075], [5.0011, 44.41271], [4.98863, 44.42317], [4.9784, 44.42357], [4.97309, 44.43155], [4.95946, 44.41981], [4.9185, 44.40781], [4.90967, 44.39673], [4.91187, 44.3879], [4.90707, 44.37463], [4.89474, 44.3693], [4.89069, 44.35972], [4.87006, 44.34827], [4.86952, 44.34508], [4.87981, 44.3453], [4.89574, 44.33799], [4.8944, 44.33299], [4.88945, 44.33309], [4.88164, 44.32482], [4.89166, 44.31333], [4.88929, 44.30403], [4.9219, 44.30892], [4.94428, 44.30593], [4.95131, 44.30102], [4.9573, 44.30259], [4.95944, 44.29888], [4.98006, 44.29745], [4.98699, 44.29254], [4.99104, 44.31173], [5.00083, 44.31819], [4.99638, 44.32004]]]]}}